{
  "type": "FeatureCollection",
  "features": [
    {
      "type": "Feature",
      "properties": {
        "norad_id": 34420,
        "name": "COSMOS 2251 DEB",
        "group": "cosmos-2251-debris",
        "lat": -51.77624766767649,
        "lon": 66.20227903748187,
        "alt_km": 683.5024026253759,
        "timestamp": "2025-12-21T05:44:51.981649+00:00",
        "meta_object_name": "COSMOS 2251 DEB",
        "meta_object_id": "1993-036RM",
        "meta_epoch": "2025-12-20T17:29:09.109824",
        "meta_mean_motion": 14.68318917,
        "meta_eccentricity": 0.01062811,
        "meta_inclination": 74.0334,
        "meta_ra_of_asc_node": 88.5066,
        "meta_arg_of_pericenter": 207.7551,
        "meta_mean_anomaly": 276.7696,
        "meta_ephemeris_type": 0,
        "meta_classification_type": "U",
        "meta_norad_cat_id": 34420,
        "meta_element_set_no": 999,
        "meta_rev_at_epoch": 89887,
        "meta_bstar": 0.00015687758,
        "meta_mean_motion_dot": 9.5e-06,
        "meta_mean_motion_ddot": 0,
        "tle_line1": "1 34420U 93036RM  25354.72857766  .00000950  00000+0  15688-3 0  9995",
        "tle_line2": "2 34420  74.0334  88.5066 0106281 207.7551 276.7696 14.68318917898875"
      },
      "geometry": {
        "type": "Point",
        "coordinates": [
          66.20227903748187,
          -51.77624766767649
        ]
      }
    },
    {
      "type": "Feature",
      "properties": {
        "norad_id": 34425,
        "name": "COSMOS 2251 DEB",
        "group": "cosmos-2251-debris",
        "lat": -22.56536429473018,
        "lon": -134.93546938707607,
        "alt_km": 678.226511016901,
        "timestamp": "2025-12-21T05:44:51.981659+00:00",
        "meta_object_name": "COSMOS 2251 DEB",
        "meta_object_id": "1993-036RS",
        "meta_epoch": "2025-12-20T12:24:03.267936",
        "meta_mean_motion": 14.62166616,
        "meta_eccentricity": 0.0024359,
        "meta_inclination": 74.0194,
        "meta_ra_of_asc_node": 39.6101,
        "meta_arg_of_pericenter": 163.9813,
        "meta_mean_anomaly": 196.2129,
        "meta_ephemeris_type": 0,
        "meta_classification_type": "U",
        "meta_norad_cat_id": 34425,
        "meta_element_set_no": 999,
        "meta_rev_at_epoch": 88854,
        "meta_bstar": 0.00032863,
        "meta_mean_motion_dot": 1.63e-05,
        "meta_mean_motion_ddot": 0,
        "tle_line1": "1 34425U 93036RS  25354.51670449  .00001630  00000+0  32863-3 0  9998",
        "tle_line2": "2 34425  74.0194  39.6101 0024359 163.9813 196.2129 14.62166616888541"
      },
      "geometry": {
        "type": "Point",
        "coordinates": [
          -134.93546938707607,
          -22.56536429473018
        ]
      }
    },
    {
      "type": "Feature",
      "properties": {
        "norad_id": 34429,
        "name": "COSMOS 2251 DEB",
        "group": "cosmos-2251-debris",
        "lat": -39.509134092349605,
        "lon": -16.805894916285492,
        "alt_km": 442.4224461769036,
        "timestamp": "2025-12-21T05:44:51.981669+00:00",
        "meta_object_name": "COSMOS 2251 DEB",
        "meta_object_id": "1993-036RW",
        "meta_epoch": "2025-12-20T20:00:10.981152",
        "meta_mean_motion": 15.44752512,
        "meta_eccentricity": 0.0011396,
        "meta_inclination": 73.9661,
        "meta_ra_of_asc_node": 150.363,
        "meta_arg_of_pericenter": 348.0303,
        "meta_mean_anomaly": 136.3512,
        "meta_ephemeris_type": 0,
        "meta_classification_type": "U",
        "meta_norad_cat_id": 34429,
        "meta_element_set_no": 999,
        "meta_rev_at_epoch": 89573,
        "meta_bstar": 0.0035052987,
        "meta_mean_motion_dot": 0.00167902,
        "meta_mean_motion_ddot": 0,
        "tle_line1": "1 34429U 93036RW  25354.83346043  .00167902  00000+0  35053-2 0  9995",
        "tle_line2": "2 34429  73.9661 150.3630 0011396 348.0303 136.3512 15.44752512895734"
      },
      "geometry": {
        "type": "Point",
        "coordinates": [
          -16.805894916285492,
          -39.509134092349605
        ]
      }
    },
    {
      "type": "Feature",
      "properties": {
        "norad_id": 34430,
        "name": "COSMOS 2251 DEB",
        "group": "cosmos-2251-debris",
        "lat": 16.124893252188624,
        "lon": -67.57830939460328,
        "alt_km": 719.5811279881809,
        "timestamp": "2025-12-21T05:44:51.981680+00:00",
        "meta_object_name": "COSMOS 2251 DEB",
        "meta_object_id": "1993-036RX",
        "meta_epoch": "2025-12-20T21:19:56.223552",
        "meta_mean_motion": 14.39654797,
        "meta_eccentricity": 0.00607327,
        "meta_inclination": 74.0518,
        "meta_ra_of_asc_node": 288.3263,
        "meta_arg_of_pericenter": 356.068,
        "meta_mean_anomaly": 3.9989,
        "meta_ephemeris_type": 0,
        "meta_classification_type": "U",
        "meta_norad_cat_id": 34430,
        "meta_element_set_no": 999,
        "meta_rev_at_epoch": 88072,
        "meta_bstar": 0.00032731858,
        "meta_mean_motion_dot": 1.019e-05,
        "meta_mean_motion_ddot": 0,
        "tle_line1": "1 34430U 93036RX  25354.88884518  .00001019  00000+0  32732-3 0  9994",
        "tle_line2": "2 34430  74.0518 288.3263 0060732 356.0680   3.9989 14.39654797880727"
      },
      "geometry": {
        "type": "Point",
        "coordinates": [
          -67.57830939460328,
          16.124893252188624
        ]
      }
    },
    {
      "type": "Feature",
      "properties": {
        "norad_id": 34431,
        "name": "COSMOS 2251 DEB",
        "group": "cosmos-2251-debris",
        "lat": -50.483434509444,
        "lon": 139.56045874266997,
        "alt_km": 849.0390956648944,
        "timestamp": "2025-12-21T05:44:51.981690+00:00",
        "meta_object_name": "COSMOS 2251 DEB",
        "meta_object_id": "1993-036RY",
        "meta_epoch": "2025-12-20T13:11:45.896064",
        "meta_mean_motion": 14.28798339,
        "meta_eccentricity": 0.0067992,
        "meta_inclination": 74.0738,
        "meta_ra_of_asc_node": 161.0622,
        "meta_arg_of_pericenter": 144.678,
        "meta_mean_anomaly": 215.8903,
        "meta_ephemeris_type": 0,
        "meta_classification_type": "U",
        "meta_norad_cat_id": 34431,
        "meta_element_set_no": 999,
        "meta_rev_at_epoch": 87254,
        "meta_bstar": 0.00048502,
        "meta_mean_motion_dot": 1.228e-05,
        "meta_mean_motion_ddot": 0,
        "tle_line1": "1 34431U 93036RY  25354.54983676  .00001228  00000+0  48502-3 0  9997",
        "tle_line2": "2 34431  74.0738 161.0622 0067992 144.6780 215.8903 14.28798339872545"
      },
      "geometry": {
        "type": "Point",
        "coordinates": [
          139.56045874266997,
          -50.483434509444
        ]
      }
    },
    {
      "type": "Feature",
      "properties": {
        "norad_id": 34432,
        "name": "COSMOS 2251 DEB",
        "group": "cosmos-2251-debris",
        "lat": -59.82883373474876,
        "lon": -62.70620673359019,
        "alt_km": 854.9509431118713,
        "timestamp": "2025-12-21T05:44:51.981700+00:00",
        "meta_object_name": "COSMOS 2251 DEB",
        "meta_object_id": "1993-036RZ",
        "meta_epoch": "2025-12-20T17:11:52.156896",
        "meta_mean_motion": 14.02937662,
        "meta_eccentricity": 0.01818257,
        "meta_inclination": 73.8282,
        "meta_ra_of_asc_node": 88.2711,
        "meta_arg_of_pericenter": 169.7091,
        "meta_mean_anomaly": 312.4038,
        "meta_ephemeris_type": 0,
        "meta_classification_type": "U",
        "meta_norad_cat_id": 34432,
        "meta_element_set_no": 999,
        "meta_rev_at_epoch": 85796,
        "meta_bstar": 0.00073625143,
        "meta_mean_motion_dot": 1.296e-05,
        "meta_mean_motion_ddot": 0,
        "tle_line1": "1 34432U 93036RZ  25354.71657589  .00001296  00000+0  73625-3 0  9997",
        "tle_line2": "2 34432  73.8282  88.2711 0181825 169.7091 312.4038 14.02937662857969"
      },
      "geometry": {
        "type": "Point",
        "coordinates": [
          -62.70620673359019,
          -59.82883373474876
        ]
      }
    },
    {
      "type": "Feature",
      "properties": {
        "norad_id": 34433,
        "name": "COSMOS 2251 DEB",
        "group": "cosmos-2251-debris",
        "lat": -27.3844403804069,
        "lon": -31.572926740570256,
        "alt_km": 811.536343706799,
        "timestamp": "2025-12-21T05:44:51.981710+00:00",
        "meta_object_name": "COSMOS 2251 DEB",
        "meta_object_id": "1993-036SA",
        "meta_epoch": "2025-12-20T20:15:06.519744",
        "meta_mean_motion": 14.12884599,
        "meta_eccentricity": 0.01527234,
        "meta_inclination": 74.0101,
        "meta_ra_of_asc_node": 140.5858,
        "meta_arg_of_pericenter": 276.9549,
        "meta_mean_anomaly": 81.4241,
        "meta_ephemeris_type": 0,
        "meta_classification_type": "U",
        "meta_norad_cat_id": 34433,
        "meta_element_set_no": 999,
        "meta_rev_at_epoch": 86064,
        "meta_bstar": 0.00076987102,
        "meta_mean_motion_dot": 1.574e-05,
        "meta_mean_motion_ddot": 0,
        "tle_line1": "1 34433U 93036SA  25354.84382546  .00001574  00000+0  76987-3 0  9993",
        "tle_line2": "2 34433  74.0101 140.5858 0152723 276.9549  81.4241 14.12884599860640"
      },
      "geometry": {
        "type": "Point",
        "coordinates": [
          -31.572926740570256,
          -27.3844403804069
        ]
      }
    }
  ]
}